NORAD_CAT_ID,OBJECT_NAME,OBJECT_TYPE,EPOCH,MEAN_MOTION,ECCENTRICITY,INCLINATION,RA_OF_ASC_NODE,ARG_OF_PERICENTER,MEAN_ANOMALY,BSTAR,MEAN_MOTION_DOT,MEAN_MOTION_DDOT,TLE_LINE0,TLE_LINE1,TLE_LINE2,SEMIMAJOR_AXIS,PERIOD,APOGEE,PERIGEE,DECAYED
53867.0,STARLINK-4793,PAYLOAD,2023-02-18 21:15:11,15.08837987,0.0001072,53.2175,238.7239,103.7312,256.38,7.2939e-06,-1.72e-06,0.0,0 STARLINK-4793,1 53867U 22114BB  23049.88554767 -.00000172  00000-0  72939-5 0  9993,2 53867  53.2175 238.7239 0001072 103.7312 256.3800 15.08837987 24416,6917.887,95.438,540.493,539.01,0.0
53867.0,STARLINK-4793,PAYLOAD,2023-02-19 11:33:39,15.08830168,0.0001076,53.2177,236.0477,93.6928,266.4187,4.0495e-05,3.57e-06,0.0,0 STARLINK-4793,1 53867U 22114BB  23050.48171272  .00000357  00000-0  40495-4 0  9992,2 53867  53.2177 236.0477 0001076  93.6928 266.4187 15.08830168 25041,6917.91,95.438,540.52,539.031,0.0
53867.0,STARLINK-4793,PAYLOAD,2023-02-19 16:19:49,15.08831512,0.000115,53.2177,235.1555,93.6575,266.4548,4.8513e-07,-2.8e-06,0.0,0 STARLINK-4793,1 53867U 22114BB  23050.68043472 -.00000280  00000-0  48513-6 0  9991,2 53867  53.2177 235.1555 0001150  93.6575 266.4548 15.08831512 24537,6917.906,95.438,540.567,538.976,0.0
53867.0,STARLINK-4793,PAYLOAD,2023-02-20 05:02:54,15.08834147,0.0001137,53.2178,232.7767,90.4302,269.682,2.5593e-05,1.19e-06,0.0,0 STARLINK-4793,1 53867U 22114BB  23051.21035407  .00000119  00000-0  25593-4 0  9991,2 53867  53.2178 232.7767 0001137  90.4302 269.6820 15.08834147 25158,6917.898,95.438,540.55,538.977,0.0
53867.0,STARLINK-4793,PAYLOAD,2023-02-20 20:56:45,15.08841674,0.0001124,53.2175,229.8029,84.7584,275.3536,4.0179e-05,3.52e-06,0.0,0 STARLINK-4793,1 53867U 22114BB  23051.87274989  .00000352  00000-0  40179-4 0  9999,2 53867  53.2175 229.8029 0001124  84.7584 275.3536 15.08841674 24719,6917.875,95.437,540.518,538.963,0.0
53867.0,STARLINK-4793,PAYLOAD,2023-02-21 11:15:13,15.08839001,0.0001119,53.2174,227.1264,81.767,278.3449,3.6635e-05,2.95e-06,0.0,0 STARLINK-4793,1 53867U 22114BB  23052.46891133  .00000295  00000-0  36635-4 0  9999,2 53867  53.2174 227.1264 0001119  81.7670 278.3449 15.08839001 25344,6917.883,95.438,540.523,538.974,0.0
53867.0,STARLINK-4793,PAYLOAD,2023-02-21 20:47:32,15.08845371,0.0001157,53.2175,225.3418,77.8485,282.2637,8.0271e-05,9.9e-06,0.0,0 STARLINK-4793,1 53867U 22114BB  23052.86634543  .00000990  00000-0  80271-4 0  9990,2 53867  53.2175 225.3418 0001157  77.8485 282.2637 15.08845371 25405,6917.864,95.437,540.529,538.929,0.0
53867.0,STARLINK-4793,PAYLOAD,2023-02-22 11:06:01,15.08838765,0.0001263,53.2184,222.6676,79.3479,280.7655,-1.5065e-05,-5.28e-06,0.0,0 STARLINK-4793,1 53867U 22114BB  23053.46251283 -.00000528  00000-0 -15065-4 0  9991,2 53867  53.2184 222.6676 0001263  79.3479 280.7655 15.08838765 24950,6917.884,95.438,540.623,538.875,0.0
53867.0,STARLINK-4793,PAYLOAD,2023-02-22 20:38:19,15.08843723,0.0001236,53.2181,220.8823,81.1094,279.0038,-2.0438e-06,-3.2e-06,0.0,0 STARLINK-4793,1 53867U 22114BB  23053.85994790 -.00000320  00000-0 -20438-5 0  9992,2 53867  53.2181 220.8823 0001236  81.1094 279.0038 15.08843723 25558,6917.869,95.437,540.589,538.879,0.0
53867.0,STARLINK-4793,PAYLOAD,2023-02-23 10:56:48,15.08838993,0.0001255,53.2186,218.2061,79.8245,280.2889,-7.6277e-05,-1.502e-05,0.0,0 STARLINK-4793,1 53867U 22114BB  23054.45611363 -.00001502  00000-0 -76277-4 0  9995,2 53867  53.2186 218.2061 0001255  79.8245 280.2889 15.08838993 25642,6917.883,95.438,540.617,538.88,0.0
53867.0,STARLINK-4793,PAYLOAD,2023-02-23 14:07:34,15.08839364,0.0001237,53.2183,217.6121,73.8921,286.2207,-3.6575e-05,-8.7e-06,0.0,0 STARLINK-4793,1 53867U 22114BB  23054.58859163 -.00000870  00000-0 -36575-4 0  9995,2 53867  53.2183 217.6121 0001237  73.8921 286.2207 15.08839364 25120,6917.882,95.438,540.603,538.892,0.0
53867.0,STARLINK-4793,PAYLOAD,2023-02-23 20:29:06,15.08844637,0.0001232,53.2188,216.422,83.238,276.8753,-4.4042e-06,-3.58e-06,0.0,0 STARLINK-4793,1 53867U 22114BB  23054.85354653 -.00000358  00000-0 -44042-5 0  9999,2 53867  53.2188 216.4220 0001232  83.2380 276.8753 15.08844637 25705,6917.866,95.437,540.583,538.879,0.0
53867.0,STARLINK-4793,PAYLOAD,2023-02-24 17:09:07,15.08837597,0.0001371,53.2181,212.5565,81.7836,278.3312,5.7017e-06,-1.97e-06,0.0,0 STARLINK-4793,1 53867U 22114BB  23055.71467150 -.00000197  00000-0  57017-5 0  9998,2 53867  53.2181 212.5565 0001371  81.7836 278.3312 15.08837597 25299,6917.888,95.438,540.701,538.804,0.0
53867.0,STARLINK-4793,PAYLOAD,2023-02-24 20:19:53,15.08840718,0.0001337,53.2189,211.9621,81.3763,278.738,6.7269e-06,-1.81e-06,0.0,0 STARLINK-4793,1 53867U 22114BB  23055.84714959 -.00000181  00000-0  67269-5 0  9997,2 53867  53.2189 211.9621 0001337  81.3763 278.7380 15.08840718 25850,6917.878,95.438,540.668,538.818,0.0
53867.0,STARLINK-4793,PAYLOAD,2023-02-25 16:59:54,15.08836008,0.0001277,53.2192,208.0967,86.7882,273.3256,3.3481e-06,-2.35e-06,0.0,0 STARLINK-4793,1 53867U 22114BB  23056.70827493 -.00000235  00000-0  33481-5 0  9990,2 53867  53.2192 208.0967 0001277  86.7882 273.3256 15.08836008 25982,6917.893,95.438,540.641,538.874,0.0
53867.0,STARLINK-4793,PAYLOAD,2023-02-26 02:32:13,15.08833334,9.29e-05,53.2193,206.3118,87.4015,272.7083,-5.4109e-05,-1.149e-05,0.0,0 STARLINK-4793,1 53867U 22114BB  23057.10571715 -.00001149  00000-0 -54109-4 0  9993,2 53867  53.2193 206.3118 0000929  87.4015 272.7083 15.08833334 25509,6917.901,95.438,540.408,539.123,0.0
53867.0,STARLINK-4793,PAYLOAD,2023-02-26 10:29:09,15.0883342,6.71e-05,53.2193,204.8256,83.0071,277.0997,-5.2139e-05,-1.117e-05,0.0,0 STARLINK-4793,1 53867U 22114BB  23057.43691862 -.00001117  00000-0 -52139-4 0  9991,2 53867  53.2193 204.8256 0000671  83.0071 277.0997 15.08833420 26096,6917.901,95.438,540.23,539.301,0.0
53867.0,STARLINK-4793,PAYLOAD,2023-02-26 20:01:26,15.08853855,0.0001332,53.2199,203.0422,83.6121,276.5023,0.00011428,1.532e-05,0.0,0 STARLINK-4793,1 53867U 22114BB  23057.83433965  .00001532  00000-0  11428-3 0  9997,2 53867  53.2199 203.0422 0001332  83.6121 276.5023 15.08853855 25610,6917.838,95.437,540.624,538.782,0.0
53867.0,STARLINK-4793,PAYLOAD,2023-02-27 02:23:01,15.08831238,0.0001031,53.2199,201.8518,91.7468,268.3642,-7.6796e-05,-1.509e-05,0.0,0 STARLINK-4793,1 53867U 22114BB  23058.09931853 -.00001509  00000-0 -76796-4 0  9991,2 53867  53.2199 201.8518 0001031  91.7468 268.3642 15.08831238 25653,6917.907,95.438,540.485,539.059,0.0
53867.0,STARLINK-4793,PAYLOAD,2023-02-27 10:19:56,15.08835866,0.0001086,53.2193,200.3635,85.9495,274.1621,-9.3155e-05,-1.77e-05,0.0,0 STARLINK-4793,1 53867U 22114BB  23058.43051929 -.00001770  00000-0 -93155-4 0  9994,2 53867  53.2193 200.3635 0001086  85.9495 274.1621 15.08835866 26245,6917.893,95.438,540.509,539.007,0.0
53867.0,STARLINK-4793,PAYLOAD,2023-02-27 18:16:50,15.0885514,0.0001197,53.2189,198.8776,89.9231,270.1899,6.8676e-05,8.06e-06,0.0,0 STARLINK-4793,1 53867U 22114BB  23058.76170057  .00000806  00000-0  68676-4 0  9991,2 53867  53.2189 198.8776 0001197  89.9231 270.1899 15.08855140 25757,6917.834,95.437,540.527,538.871,0.0
53867.0,STARLINK-4793,PAYLOAD,2023-02-27 19:52:13,15.0885796,9.88e-05,53.2188,198.5798,90.878,269.2325,9.0722e-05,1.157e-05,0.0,0 STARLINK-4793,1 53867U 22114BB  23058.82793648  .00001157  00000-0  90722-4 0  9992,2 53867  53.2188 198.5798 0000988  90.8780 269.2325 15.08857960 26301,6917.825,95.436,540.374,539.007,0.0
53867.0,STARLINK-4793,PAYLOAD,2023-02-28 02:13:47,15.08834293,0.0001028,53.219,197.3911,67.6428,292.4673,-6.3724e-05,-1.302e-05,0.0,0 STARLINK-4793,1 53867U 22114BB  23059.09291557 -.00001302  00000-0 -63724-4 0  9990,2 53867  53.2190 197.3911 0001028  67.6428 292.4673 15.08834293 25807,6917.898,95.438,540.474,539.052,0.0
53867.0,STARLINK-4793,PAYLOAD,2023-02-28 13:21:31,15.08822826,0.0001622,53.2184,195.3123,78.0181,282.0993,-0.00019017,-3.312e-05,0.0,0 STARLINK-4793,1 53867U 22114BB  23059.55661257 -.00003312  00000-0 -19017-3 0  9997,2 53867  53.2184 195.3123 0001622  78.0181 282.0993 15.08822826 26412,6917.933,95.439,540.92,538.676,0.0
53867.0,STARLINK-4793,PAYLOAD,2023-02-28 14:56:54,15.08825568,0.0001335,53.219,195.0118,74.9777,285.1362,-0.00022409,-3.851e-05,0.0,0 STARLINK-4793,1 53867U 22114BB  23059.62285210 -.00003851  00000-0 -22409-3 0  9993,2 53867  53.2190 195.0118 0001335  74.9777 285.1362 15.08825568 25887,6917.925,95.438,540.713,538.866,0.0
53867.0,STARLINK-4793,PAYLOAD,2023-02-28 18:07:39,15.08837573,0.0001032,53.2193,194.4169,83.012,277.0989,-0.00012396,-2.26e-05,0.0,0 STARLINK-4793,1 53867U 22114BB  23059.75532060 -.00002260  00000-0 -12396-3 0  9992,2 53867  53.2193 194.4169 0001032  83.0120 277.0989 15.08837573 26443,6917.888,95.438,540.467,539.039,0.0
53867.0,STARLINK-4793,PAYLOAD,2023-03-01 08:26:08,15.0882223,9.57e-05,53.2192,191.7416,85.2265,274.8836,-1.4488e-05,-5.18e-06,0.0,0 STARLINK-4793,1 53867U 22114BB  23060.35148967 -.00000518  00000-0 -14488-4 0  9998,2 53867  53.2192 191.7416 0000957  85.2265 274.8836 15.08822230 25995,6917.935,95.439,540.462,539.138,0.0
53867.0,STARLINK-4793,PAYLOAD,2023-03-01 17:58:26,15.08849981,0.0001059,53.2186,189.9565,84.0689,276.0424,4.1316e-05,3.7e-06,0.0,0 STARLINK-4793,1 53867U 22114BB  23060.74891206  .00000370  00000-0  41316-4 0  9996,2 53867  53.2186 189.9565 0001059  84.0689 276.0424 15.08849981 26050,6917.85,95.437,540.447,538.982,0.0
53867.0,STARLINK-4793,PAYLOAD,2023-03-02 01:55:22,15.0884342,0.0001484,53.2186,188.4738,64.1826,295.9319,-6.0821e-05,-1.256e-05,0.0,0 STARLINK-4793,1 53867U 22114BB  23061.08012059 -.00001256  00000-0 -60821-4 0  9993,2 53867  53.2186 188.4738 0001484  64.1826 295.9319 15.08843420 26101,6917.87,95.437,540.762,538.708,0.0
53867.0,STARLINK-4793,PAYLOAD,2023-03-02 17:49:12,15.08847702,0.0001155,53.2192,185.4969,85.5776,274.5348,0.00016417,2.326e-05,0.0,0 STARLINK-4793,1 53867U 22114BB  23061.74251106  .00002326  00000-0  16417-3 0  9992,2 53867  53.2192 185.4969 0001155  85.5776 274.5348 15.08847702 26749,6917.857,95.437,540.521,538.923,0.0
